CCSDS_OMM_VERS = 2.0
CREATION_DATE  = 
ORIGINATOR     = 

OBJECT_NAME    = AQUA
OBJECT_ID      = 2002-022A
CENTER_NAME    = EARTH
REF_FRAME      = TEME
TIME_SYSTEM    = UTC
MEAN_ELEMENT_THEORY = SGP/SGP4

EPOCH          = 2026-03-10T21:48:47.485152
MEAN_MOTION    = 14.61980270
ECCENTRICITY   = .00005566
INCLINATION    = 98.4176
RA_OF_ASC_NODE = 37.2960
ARG_OF_PERICENTER = 84.9457
MEAN_ANOMALY   = 296.1349

EPHEMERIS_TYPE = 0
CLASSIFICATION_TYPE = U
NORAD_CAT_ID   = 27424
ELEMENT_SET_NO = 999
REV_AT_EPOCH   = 26891
BSTAR          = .26444494E-3
MEAN_MOTION_DOT = .1276E-4
MEAN_MOTION_DDOT = 0

CCSDS_OMM_VERS = 2.0
CREATION_DATE  = 
ORIGINATOR     = 

OBJECT_NAME    = CZ-4B R/B
OBJECT_ID      = 2002-024C
CENTER_NAME    = EARTH
REF_FRAME      = TEME
TIME_SYSTEM    = UTC
MEAN_ELEMENT_THEORY = SGP/SGP4

EPOCH          = 2026-03-10T18:56:54.072672
MEAN_MOTION    = 14.14547759
ECCENTRICITY   = .00504288
INCLINATION    = 98.8837
RA_OF_ASC_NODE = 123.1907
ARG_OF_PERICENTER = 21.0882
MEAN_ANOMALY   = 88.5338

EPHEMERIS_TYPE = 0
CLASSIFICATION_TYPE = U
NORAD_CAT_ID   = 27432
ELEMENT_SET_NO = 999
REV_AT_EPOCH   = 22939
BSTAR          = .44541693E-4
MEAN_MOTION_DOT = .42E-6
MEAN_MOTION_DDOT = 0

CCSDS_OMM_VERS = 2.0
CREATION_DATE  = 
ORIGINATOR     = 

OBJECT_NAME    = MIDORI II (ADEOS-II)
OBJECT_ID      = 2002-056A
CENTER_NAME    = EARTH
REF_FRAME      = TEME
TIME_SYSTEM    = UTC
MEAN_ELEMENT_THEORY = SGP/SGP4

EPOCH          = 2026-03-10T20:29:26.369952
MEAN_MOTION    = 14.29286173
ECCENTRICITY   = .00015373
INCLINATION    = 98.7768
RA_OF_ASC_NODE = 28.3393
ARG_OF_PERICENTER = 40.8915
MEAN_ANOMALY   = 319.2382

EPHEMERIS_TYPE = 0
CLASSIFICATION_TYPE = U
NORAD_CAT_ID   = 27597
ELEMENT_SET_NO = 999
REV_AT_EPOCH   = 21046
BSTAR          = .17141274E-3
MEAN_MOTION_DOT = .391E-5
MEAN_MOTION_DDOT = 0

CCSDS_OMM_VERS = 2.0
CREATION_DATE  = 
ORIGINATOR     = 

OBJECT_NAME    = H-2A R/B
OBJECT_ID      = 2002-056E
CENTER_NAME    = EARTH
REF_FRAME      = TEME
TIME_SYSTEM    = UTC
MEAN_ELEMENT_THEORY = SGP/SGP4

EPOCH          = 2026-03-10T21:14:12.048288
MEAN_MOTION    = 14.33761565
ECCENTRICITY   = .00705755
INCLINATION    = 98.3204
RA_OF_ASC_NODE = 30.2049
ARG_OF_PERICENTER = 157.1407
MEAN_ANOMALY   = 218.3466

EPHEMERIS_TYPE = 0
CLASSIFICATION_TYPE = U
NORAD_CAT_ID   = 27601
ELEMENT_SET_NO = 999
REV_AT_EPOCH   = 21428
BSTAR          = .12622186E-3
MEAN_MOTION_DOT = .319E-5
MEAN_MOTION_DDOT = 0

CCSDS_OMM_VERS = 2.0
CREATION_DATE  = 
ORIGINATOR     = 

OBJECT_NAME    = CZ-4B R/B
OBJECT_ID      = 2003-049C
CENTER_NAME    = EARTH
REF_FRAME      = TEME
TIME_SYSTEM    = UTC
MEAN_ELEMENT_THEORY = SGP/SGP4

EPOCH          = 2026-03-10T23:09:51.595200
MEAN_MOTION    = 14.55021465
ECCENTRICITY   = .00473219
INCLINATION    = 98.6879
RA_OF_ASC_NODE = 64.9200
ARG_OF_PERICENTER = 226.9391
MEAN_ANOMALY   = 132.7839

EPHEMERIS_TYPE = 0
CLASSIFICATION_TYPE = U
NORAD_CAT_ID   = 28059
ELEMENT_SET_NO = 999
REV_AT_EPOCH   = 18678
BSTAR          = .11663311E-3
MEAN_MOTION_DOT = .458E-5
MEAN_MOTION_DDOT = 0

CCSDS_OMM_VERS = 2.0
CREATION_DATE  = 
ORIGINATOR     = 

OBJECT_NAME    = CZ-2C R/B
OBJECT_ID      = 2004-012C
CENTER_NAME    = EARTH
REF_FRAME      = TEME
TIME_SYSTEM    = UTC
MEAN_ELEMENT_THEORY = SGP/SGP4

EPOCH          = 2026-03-10T18:14:56.511456
MEAN_MOTION    = 15.64642447
ECCENTRICITY   = .00129257
INCLINATION    = 97.7219
RA_OF_ASC_NODE = 135.1543
ARG_OF_PERICENTER = 305.4485
MEAN_ANOMALY   = 54.5566

EPHEMERIS_TYPE = 0
CLASSIFICATION_TYPE = U
NORAD_CAT_ID   = 28222
ELEMENT_SET_NO = 999
REV_AT_EPOCH   = 20444
BSTAR          = .64787021E-3
MEAN_MOTION_DOT = .63142E-3
MEAN_MOTION_DDOT = 0

CCSDS_OMM_VERS = 2.0
CREATION_DATE  = 
ORIGINATOR     = 

OBJECT_NAME    = SL-16 R/B
OBJECT_ID      = 2004-021B
CENTER_NAME    = EARTH
REF_FRAME      = TEME
TIME_SYSTEM    = UTC
MEAN_ELEMENT_THEORY = SGP/SGP4

EPOCH          = 2026-03-10T20:54:36.936576
MEAN_MOTION    = 14.14597524
ECCENTRICITY   = .00041225
INCLINATION    = 70.9996
RA_OF_ASC_NODE = 230.0127
ARG_OF_PERICENTER = 7.5173
MEAN_ANOMALY   = 352.6010

EPHEMERIS_TYPE = 0
CLASSIFICATION_TYPE = U
NORAD_CAT_ID   = 28353
ELEMENT_SET_NO = 999
REV_AT_EPOCH   = 12300
BSTAR          = -.10787403E-3
MEAN_MOTION_DOT = -.255E-5
MEAN_MOTION_DDOT = 0

CCSDS_OMM_VERS = 2.0
CREATION_DATE  = 
ORIGINATOR     = 

OBJECT_NAME    = CZ-4B R/B
OBJECT_ID      = 2004-035C
CENTER_NAME    = EARTH
REF_FRAME      = TEME
TIME_SYSTEM    = UTC
MEAN_ELEMENT_THEORY = SGP/SGP4

EPOCH          = 2026-03-10T15:05:52.262304
MEAN_MOTION    = 15.29083634
ECCENTRICITY   = .00308025
INCLINATION    = 97.3501
RA_OF_ASC_NODE = 103.8600
ARG_OF_PERICENTER = 328.0195
MEAN_ANOMALY   = 31.9175

EPHEMERIS_TYPE = 0
CLASSIFICATION_TYPE = U
NORAD_CAT_ID   = 28415
ELEMENT_SET_NO = 999
REV_AT_EPOCH   = 18005
BSTAR          = .34128718E-3
MEAN_MOTION_DOT = .9699E-4
MEAN_MOTION_DDOT = 0

CCSDS_OMM_VERS = 2.0
CREATION_DATE  = 
ORIGINATOR     = 

OBJECT_NAME    = CZ-2C R/B
OBJECT_ID      = 2004-046B
CENTER_NAME    = EARTH
REF_FRAME      = TEME
TIME_SYSTEM    = UTC
MEAN_ELEMENT_THEORY = SGP/SGP4

EPOCH          = 2026-03-10T17:56:42.324576
MEAN_MOTION    = 14.26992410
ECCENTRICITY   = .01399207
INCLINATION    = 98.1981
RA_OF_ASC_NODE = 344.6659
ARG_OF_PERICENTER = 151.3284
MEAN_ANOMALY   = 209.5683

EPHEMERIS_TYPE = 0
CLASSIFICATION_TYPE = U
NORAD_CAT_ID   = 28480
ELEMENT_SET_NO = 999
REV_AT_EPOCH   = 10865
BSTAR          = .67826288E-4
MEAN_MOTION_DOT = .143E-5
MEAN_MOTION_DDOT = 0

CCSDS_OMM_VERS = 2.0
CREATION_DATE  = 
ORIGINATOR     = 

OBJECT_NAME    = ARIANE 5 R/B
OBJECT_ID      = 2004-049H
CENTER_NAME    = EARTH
REF_FRAME      = TEME
TIME_SYSTEM    = UTC
MEAN_ELEMENT_THEORY = SGP/SGP4

EPOCH          = 2026-03-10T21:54:13.666752
MEAN_MOTION    = 14.85268345
ECCENTRICITY   = .00838509
INCLINATION    = 98.2629
RA_OF_ASC_NODE = 238.4154
ARG_OF_PERICENTER = 347.9415
MEAN_ANOMALY   = 11.9790

EPHEMERIS_TYPE = 0
CLASSIFICATION_TYPE = U
NORAD_CAT_ID   = 28499
ELEMENT_SET_NO = 999
REV_AT_EPOCH   = 14597
BSTAR          = .11051838E-3
MEAN_MOTION_DOT = .945E-5
MEAN_MOTION_DDOT = 0

CCSDS_OMM_VERS = 2.0
CREATION_DATE  = 
ORIGINATOR     = 

OBJECT_NAME    = CZ-2D R/B
OBJECT_ID      = 2005-024B
CENTER_NAME    = EARTH
REF_FRAME      = TEME
TIME_SYSTEM    = UTC
MEAN_ELEMENT_THEORY = SGP/SGP4

EPOCH          = 2026-03-10T23:48:38.557152
MEAN_MOTION    = 15.60281645
ECCENTRICITY   = .00056165
INCLINATION    = 97.3603
RA_OF_ASC_NODE = 85.1858
ARG_OF_PERICENTER = 43.4109
MEAN_ANOMALY   = 316.7589

EPHEMERIS_TYPE = 0
CLASSIFICATION_TYPE = U
NORAD_CAT_ID   = 28738
ELEMENT_SET_NO = 999
REV_AT_EPOCH   = 13998
BSTAR          = .5944306E-3
MEAN_MOTION_DOT = .48661E-3
MEAN_MOTION_DDOT = 0

CCSDS_OMM_VERS = 2.0
CREATION_DATE  = 
ORIGINATOR     = 

OBJECT_NAME    = ALOS (DAICHI)
OBJECT_ID      = 2006-002A
CENTER_NAME    = EARTH
REF_FRAME      = TEME
TIME_SYSTEM    = UTC
MEAN_ELEMENT_THEORY = SGP/SGP4

EPOCH          = 2026-03-10T20:44:50.203680
MEAN_MOTION    = 14.69814887
ECCENTRICITY   = .00008662
INCLINATION    = 98.1219
RA_OF_ASC_NODE = 25.8140
ARG_OF_PERICENTER = 57.3766
MEAN_ANOMALY   = 302.7524

EPHEMERIS_TYPE = 0
CLASSIFICATION_TYPE = U
NORAD_CAT_ID   = 28931
ELEMENT_SET_NO = 999
REV_AT_EPOCH   = 7365
BSTAR          = .31098205E-3
MEAN_MOTION_DOT = .1808E-4
MEAN_MOTION_DDOT = 0

